SL-14 R/B               
1 21423U 91042B   26017.97756621  .00000361  00000+0  42705-4 0  9998
2 21423  82.4926 267.7461 0018269  50.9529 309.3307 14.81776172845561
ERS-1                   
1 21574U 91050A   26017.88416065  .00000285  00000+0  10590-3 0  9990
2 21574  98.7896  34.8425 0031830 354.9808   5.1055 14.39397858808421
ARIANE 40 R/B           
1 21610U 91050F   26017.98650668  .00000260  00000+0  90477-4 0  9997
2 21610  98.2112  72.1003 0002495 207.6307 152.4751 14.42846017811689
INTERCOSMOS 25          
1 21819U 91086A   26017.88035687  .00000419  00000+0  81944-4 0  9999
2 21819  82.6087 340.7152 1486030 226.4366 120.3583 12.11858252490535
SL-8 R/B                
1 21876U 92008B   26017.89325367  .00000082  00000+0  69260-4 0  9998
2 21876  82.9290 305.5594 0033351 277.1976 147.2147 13.75966646702436
SL-8 R/B                
1 21938U 92020B   26018.00476738  .00000183  00000+0  17397-3 0  9999
2 21938  82.9297 191.3864 0030221  79.8812  40.3465 13.75538940694160
USA 81                  
1 21949U 92023A   26017.87186894  .00000177  00000+0  58267-4 0  9994
2 21949  85.0105 160.7394 0001810 117.4286 242.7091 14.32343217 87511
COSMOS 2219             
1 22219U 92076A   26017.65998533 -.00000093  00000+0 -23834-4 0  9991
2 22219  71.0618 124.7471 0020775 277.6747  82.2016 14.14081330711168
SL-16 R/B               
1 22220U 92076B   26017.93953609 -.00000010  00000+0  19005-4 0  9992
2 22220  71.0012 295.2785 0012794 183.3628 259.8642 14.16850317714647
COSMOS 2221             
1 22236U 92080A   26017.87340389  .00001835  00000+0  16134-3 0  9996
2 22236  82.5059 327.7368 0014943  10.5346 349.6185 14.95937911773194
SL-16 R/B               
1 22285U 92093B   26017.71554034  .00000300  00000+0  17812-3 0  9991
2 22285  71.0223 111.2774 0003907 353.2719   6.8351 14.15438706705945
COSMOS 2228             
1 22286U 92094A   26017.98978395  .00001798  00000+0  15375-3 0  9996
2 22286  82.5189 285.8501 0019452 110.0834 250.2485 14.96921406768472
