CCSDS_OMM_VERS = 2.0
CREATION_DATE  = 
ORIGINATOR     = 

OBJECT_NAME    = SL-14 R/B
OBJECT_ID      = 1991-042B
CENTER_NAME    = EARTH
REF_FRAME      = TEME
TIME_SYSTEM    = UTC
MEAN_ELEMENT_THEORY = SGP/SGP4

EPOCH          = 2026-01-17T23:27:41.720544
MEAN_MOTION    = 14.81776172
ECCENTRICITY   = .00182693
INCLINATION    = 82.4926
RA_OF_ASC_NODE = 267.7461
ARG_OF_PERICENTER = 50.9529
MEAN_ANOMALY   = 309.3307

EPHEMERIS_TYPE = 0
CLASSIFICATION_TYPE = U
NORAD_CAT_ID   = 21423
ELEMENT_SET_NO = 999
REV_AT_EPOCH   = 84556
BSTAR          = .42704624E-4
MEAN_MOTION_DOT = .361E-5
MEAN_MOTION_DDOT = 0

CCSDS_OMM_VERS = 2.0
CREATION_DATE  = 
ORIGINATOR     = 

OBJECT_NAME    = ERS-1
OBJECT_ID      = 1991-050A
CENTER_NAME    = EARTH
REF_FRAME      = TEME
TIME_SYSTEM    = UTC
MEAN_ELEMENT_THEORY = SGP/SGP4

EPOCH          = 2026-01-17T21:13:11.480160
MEAN_MOTION    = 14.39397858
ECCENTRICITY   = .00318302
INCLINATION    = 98.7896
RA_OF_ASC_NODE = 34.8425
ARG_OF_PERICENTER = 354.9808
MEAN_ANOMALY   = 5.1055

EPHEMERIS_TYPE = 0
CLASSIFICATION_TYPE = U
NORAD_CAT_ID   = 21574
ELEMENT_SET_NO = 999
REV_AT_EPOCH   = 80842
BSTAR          = .10590379E-3
MEAN_MOTION_DOT = .285E-5
MEAN_MOTION_DDOT = 0

CCSDS_OMM_VERS = 2.0
CREATION_DATE  = 
ORIGINATOR     = 

OBJECT_NAME    = ARIANE 40 R/B
OBJECT_ID      = 1991-050F
CENTER_NAME    = EARTH
REF_FRAME      = TEME
TIME_SYSTEM    = UTC
MEAN_ELEMENT_THEORY = SGP/SGP4

EPOCH          = 2026-01-17T23:40:34.177152
MEAN_MOTION    = 14.42846017
ECCENTRICITY   = .00024952
INCLINATION    = 98.2112
RA_OF_ASC_NODE = 72.1003
ARG_OF_PERICENTER = 207.6307
MEAN_ANOMALY   = 152.4751

EPHEMERIS_TYPE = 0
CLASSIFICATION_TYPE = U
NORAD_CAT_ID   = 21610
ELEMENT_SET_NO = 999
REV_AT_EPOCH   = 81168
BSTAR          = .90476702E-4
MEAN_MOTION_DOT = .26E-5
MEAN_MOTION_DDOT = 0

CCSDS_OMM_VERS = 2.0
CREATION_DATE  = 
ORIGINATOR     = 

OBJECT_NAME    = INTERCOSMOS 25
OBJECT_ID      = 1991-086A
CENTER_NAME    = EARTH
REF_FRAME      = TEME
TIME_SYSTEM    = UTC
MEAN_ELEMENT_THEORY = SGP/SGP4

EPOCH          = 2026-01-17T21:07:42.833568
MEAN_MOTION    = 12.11858252
ECCENTRICITY   = .14860301
INCLINATION    = 82.6087
RA_OF_ASC_NODE = 340.7152
ARG_OF_PERICENTER = 226.4366
MEAN_ANOMALY   = 120.3583

EPHEMERIS_TYPE = 0
CLASSIFICATION_TYPE = U
NORAD_CAT_ID   = 21819
ELEMENT_SET_NO = 999
REV_AT_EPOCH   = 49053
BSTAR          = .81943577E-4
MEAN_MOTION_DOT = .419E-5
MEAN_MOTION_DDOT = 0

CCSDS_OMM_VERS = 2.0
CREATION_DATE  = 
ORIGINATOR     = 

OBJECT_NAME    = SL-8 R/B
OBJECT_ID      = 1992-008B
CENTER_NAME    = EARTH
REF_FRAME      = TEME
TIME_SYSTEM    = UTC
MEAN_ELEMENT_THEORY = SGP/SGP4

EPOCH          = 2026-01-17T21:26:17.117088
MEAN_MOTION    = 13.75966646
ECCENTRICITY   = .00333512
INCLINATION    = 82.9290
RA_OF_ASC_NODE = 305.5594
ARG_OF_PERICENTER = 277.1976
MEAN_ANOMALY   = 147.2147

EPHEMERIS_TYPE = 0
CLASSIFICATION_TYPE = U
NORAD_CAT_ID   = 21876
ELEMENT_SET_NO = 999
REV_AT_EPOCH   = 70243
BSTAR          = .69260447E-4
MEAN_MOTION_DOT = .82E-6
MEAN_MOTION_DDOT = 0

CCSDS_OMM_VERS = 2.0
CREATION_DATE  = 
ORIGINATOR     = 

OBJECT_NAME    = SL-8 R/B
OBJECT_ID      = 1992-020B
CENTER_NAME    = EARTH
REF_FRAME      = TEME
TIME_SYSTEM    = UTC
MEAN_ELEMENT_THEORY = SGP/SGP4

EPOCH          = 2026-01-18T00:06:51.901632
MEAN_MOTION    = 13.75538940
ECCENTRICITY   = .00302212
INCLINATION    = 82.9297
RA_OF_ASC_NODE = 191.3864
ARG_OF_PERICENTER = 79.8812
MEAN_ANOMALY   = 40.3465

EPHEMERIS_TYPE = 0
CLASSIFICATION_TYPE = U
NORAD_CAT_ID   = 21938
ELEMENT_SET_NO = 999
REV_AT_EPOCH   = 69416
BSTAR          = .17397036E-3
MEAN_MOTION_DOT = .183E-5
MEAN_MOTION_DDOT = 0

CCSDS_OMM_VERS = 2.0
CREATION_DATE  = 
ORIGINATOR     = 

OBJECT_NAME    = USA 81
OBJECT_ID      = 1992-023A
CENTER_NAME    = EARTH
REF_FRAME      = TEME
TIME_SYSTEM    = UTC
MEAN_ELEMENT_THEORY = SGP/SGP4

EPOCH          = 2026-01-17T20:55:29.476416
MEAN_MOTION    = 14.32343217
ECCENTRICITY   = .000181
INCLINATION    = 85.0105
RA_OF_ASC_NODE = 160.7394
ARG_OF_PERICENTER = 117.4286
MEAN_ANOMALY   = 242.7091

EPHEMERIS_TYPE = 0
CLASSIFICATION_TYPE = U
NORAD_CAT_ID   = 21949
ELEMENT_SET_NO = 999
REV_AT_EPOCH   = 8751
BSTAR          = .58267391E-4
MEAN_MOTION_DOT = .177E-5
MEAN_MOTION_DDOT = 0

CCSDS_OMM_VERS = 2.0
CREATION_DATE  = 
ORIGINATOR     = 

OBJECT_NAME    = COSMOS 2219
OBJECT_ID      = 1992-076A
CENTER_NAME    = EARTH
REF_FRAME      = TEME
TIME_SYSTEM    = UTC
MEAN_ELEMENT_THEORY = SGP/SGP4

EPOCH          = 2026-01-17T15:50:22.732512
MEAN_MOTION    = 14.14081330
ECCENTRICITY   = .00207756
INCLINATION    = 71.0618
RA_OF_ASC_NODE = 124.7471
ARG_OF_PERICENTER = 277.6747
MEAN_ANOMALY   = 82.2016

EPHEMERIS_TYPE = 0
CLASSIFICATION_TYPE = U
NORAD_CAT_ID   = 22219
ELEMENT_SET_NO = 999
REV_AT_EPOCH   = 71116
BSTAR          = -.23833872E-4
MEAN_MOTION_DOT = -.93E-6
MEAN_MOTION_DDOT = 0

CCSDS_OMM_VERS = 2.0
CREATION_DATE  = 
ORIGINATOR     = 

OBJECT_NAME    = SL-16 R/B
OBJECT_ID      = 1992-076B
CENTER_NAME    = EARTH
REF_FRAME      = TEME
TIME_SYSTEM    = UTC
MEAN_ELEMENT_THEORY = SGP/SGP4

EPOCH          = 2026-01-17T22:32:55.918176
MEAN_MOTION    = 14.16850317
ECCENTRICITY   = .0012794
INCLINATION    = 71.0012
RA_OF_ASC_NODE = 295.2785
ARG_OF_PERICENTER = 183.3628
MEAN_ANOMALY   = 259.8642

EPHEMERIS_TYPE = 0
CLASSIFICATION_TYPE = U
NORAD_CAT_ID   = 22220
ELEMENT_SET_NO = 999
REV_AT_EPOCH   = 71464
BSTAR          = .1900514E-4
MEAN_MOTION_DOT = -.1E-6
MEAN_MOTION_DDOT = 0

CCSDS_OMM_VERS = 2.0
CREATION_DATE  = 
ORIGINATOR     = 

OBJECT_NAME    = COSMOS 2221
OBJECT_ID      = 1992-080A
CENTER_NAME    = EARTH
REF_FRAME      = TEME
TIME_SYSTEM    = UTC
MEAN_ELEMENT_THEORY = SGP/SGP4

EPOCH          = 2026-01-17T20:57:42.096096
MEAN_MOTION    = 14.95937911
ECCENTRICITY   = .00149434
INCLINATION    = 82.5059
RA_OF_ASC_NODE = 327.7368
ARG_OF_PERICENTER = 10.5346
MEAN_ANOMALY   = 349.6185

EPHEMERIS_TYPE = 0
CLASSIFICATION_TYPE = U
NORAD_CAT_ID   = 22236
ELEMENT_SET_NO = 999
REV_AT_EPOCH   = 77319
BSTAR          = .16133631E-3
MEAN_MOTION_DOT = .1835E-4
MEAN_MOTION_DDOT = 0

CCSDS_OMM_VERS = 2.0
CREATION_DATE  = 
ORIGINATOR     = 

OBJECT_NAME    = SL-16 R/B
OBJECT_ID      = 1992-093B
CENTER_NAME    = EARTH
REF_FRAME      = TEME
TIME_SYSTEM    = UTC
MEAN_ELEMENT_THEORY = SGP/SGP4

EPOCH          = 2026-01-17T17:10:22.685376
MEAN_MOTION    = 14.15438706
ECCENTRICITY   = .00039079
INCLINATION    = 71.0223
RA_OF_ASC_NODE = 111.2774
ARG_OF_PERICENTER = 353.2719
MEAN_ANOMALY   = 6.8351

EPHEMERIS_TYPE = 0
CLASSIFICATION_TYPE = U
NORAD_CAT_ID   = 22285
ELEMENT_SET_NO = 999
REV_AT_EPOCH   = 70594
BSTAR          = .17811838E-3
MEAN_MOTION_DOT = .3E-5
MEAN_MOTION_DDOT = 0

CCSDS_OMM_VERS = 2.0
CREATION_DATE  = 
ORIGINATOR     = 

OBJECT_NAME    = COSMOS 2228
OBJECT_ID      = 1992-094A
CENTER_NAME    = EARTH
REF_FRAME      = TEME
TIME_SYSTEM    = UTC
MEAN_ELEMENT_THEORY = SGP/SGP4

EPOCH          = 2026-01-17T23:45:17.333280
MEAN_MOTION    = 14.96921406
ECCENTRICITY   = .00194528
INCLINATION    = 82.5189
RA_OF_ASC_NODE = 285.8501
ARG_OF_PERICENTER = 110.0834
MEAN_ANOMALY   = 250.2485

EPHEMERIS_TYPE = 0
CLASSIFICATION_TYPE = U
NORAD_CAT_ID   = 22286
ELEMENT_SET_NO = 999
REV_AT_EPOCH   = 76847
BSTAR          = .15375182E-3
MEAN_MOTION_DOT = .1798E-4
MEAN_MOTION_DDOT = 0

